{
 "generated_at": "2026-07-01T08:50:10Z",
 "sources": [
  {
   "name": "CelesTrak",
   "url": "https://celestrak.org/NORAD/elements/",
   "license": "frei verfügbar; Attribution. Ursprünglich USSPACECOM/Space-Track."
  },
  {
   "name": "GCAT (J. McDowell, planet4589.org)",
   "url": "https://planet4589.org/space/gcat/",
   "license": "CC-BY 4.0"
  }
 ],
 "satellites": [
  {
   "norad": 41105,
   "name": "ELEKTRO-L 2",
   "intl": "2015-074A",
   "group": "weather",
   "gcat": {
    "class": "C",
    "category": "MET",
    "owner": "RGMS/NPOLO",
    "state": "RU"
   },
   "omm": {
    "OBJECT_NAME": "ELEKTRO-L 2",
    "OBJECT_ID": "2015-074A",
    "EPOCH": "2026-06-30T03:05:16.247328",
    "MEAN_MOTION": 1.00271247,
    "ECCENTRICITY": 0.0000706,
    "INCLINATION": 6.7257,
    "RA_OF_ASC_NODE": 70.3668,
    "ARG_OF_PERICENTER": 276.5342,
    "MEAN_ANOMALY": 323.0657,
    "EPHEMERIS_TYPE": 0,
    "CLASSIFICATION_TYPE": "U",
    "NORAD_CAT_ID": 41105,
    "ELEMENT_SET_NO": 999,
    "REV_AT_EPOCH": 3863,
    "BSTAR": 0,
    "MEAN_MOTION_DOT": -0.00000112,
    "MEAN_MOTION_DDOT": 0
   }
  },
  {
   "norad": 36411,
   "name": "EWS-G2 (GOES 15)",
   "intl": "2010-008A",
   "group": "weather",
   "gcat": {
    "class": "C",
    "category": "MET",
    "owner": "NOAA",
    "state": "US"
   },
   "omm": {
    "OBJECT_NAME": "EWS-G2 (GOES 15)",
    "OBJECT_ID": "2010-008A",
    "EPOCH": "2026-06-30T21:38:38.652000",
    "MEAN_MOTION": 1.0026828,
    "ECCENTRICITY": 0.00053927,
    "INCLINATION": 1.3136,
    "RA_OF_ASC_NODE": 82.6617,
    "ARG_OF_PERICENTER": 44.7242,
    "MEAN_ANOMALY": 179.7355,
    "EPHEMERIS_TYPE": 0,
    "CLASSIFICATION_TYPE": "U",
    "NORAD_CAT_ID": 36411,
    "ELEMENT_SET_NO": 999,
    "REV_AT_EPOCH": 5977,
    "BSTAR": 0,
    "MEAN_MOTION_DOT": 3e-7,
    "MEAN_MOTION_DDOT": 0
   }
  },
  {
   "norad": 40367,
   "name": "FENGYUN 2G",
   "intl": "2014-090A",
   "group": "weather",
   "gcat": {
    "class": "C",
    "category": "MET",
    "owner": "NSMC",
    "state": "CN"
   },
   "omm": {
    "OBJECT_NAME": "FENGYUN 2G",
    "OBJECT_ID": "2014-090A",
    "EPOCH": "2026-06-30T14:33:01.295136",
    "MEAN_MOTION": 1.0026757,
    "ECCENTRICITY": 0.00036132,
    "INCLINATION": 5.6718,
    "RA_OF_ASC_NODE": 72.6578,
    "ARG_OF_PERICENTER": 150.2358,
    "MEAN_ANOMALY": 13.6327,
    "EPHEMERIS_TYPE": 0,
    "CLASSIFICATION_TYPE": "U",
    "NORAD_CAT_ID": 40367,
    "ELEMENT_SET_NO": 999,
    "REV_AT_EPOCH": 4213,
    "BSTAR": 0,
    "MEAN_MOTION_DOT": -0.00000295,
    "MEAN_MOTION_DDOT": 0
   }
  },
  {
   "norad": 43491,
   "name": "FENGYUN 2H",
   "intl": "2018-050A",
   "group": "weather",
   "gcat": {
    "class": "C",
    "category": "MET",
    "owner": "NSMC",
    "state": "CN"
   },
   "omm": {
    "OBJECT_NAME": "FENGYUN 2H",
    "OBJECT_ID": "2018-050A",
    "EPOCH": "2026-06-30T19:35:07.392192",
    "MEAN_MOTION": 1.0026966,
    "ECCENTRICITY": 0.00017556,
    "INCLINATION": 3.0654,
    "RA_OF_ASC_NODE": 78.9207,
    "ARG_OF_PERICENTER": 121.3276,
    "MEAN_ANOMALY": 91.7215,
    "EPHEMERIS_TYPE": 0,
    "CLASSIFICATION_TYPE": "U",
    "NORAD_CAT_ID": 43491,
    "ELEMENT_SET_NO": 999,
    "REV_AT_EPOCH": 2957,
    "BSTAR": 0,
    "MEAN_MOTION_DOT": -0.00000121,
    "MEAN_MOTION_DDOT": 0
   }
  },
  {
   "norad": 37214,
   "name": "FENGYUN 3B",
   "intl": "2010-059A",
   "group": "weather",
   "gcat": {
    "class": null,
    "category": null,
    "owner": null,
    "state": null
   },
   "omm": {
    "OBJECT_NAME": "FENGYUN 3B",
    "OBJECT_ID": "2010-059A",
    "EPOCH": "2026-06-30T23:08:26.180160",
    "MEAN_MOTION": 14.14843316,
    "ECCENTRICITY": 0.00226306,
    "INCLINATION": 98.9615,
    "RA_OF_ASC_NODE": 228.0365,
    "ARG_OF_PERICENTER": 145.2202,
    "MEAN_ANOMALY": 335.6101,
    "EPHEMERIS_TYPE": 0,
    "CLASSIFICATION_TYPE": "U",
    "NORAD_CAT_ID": 37214,
    "ELEMENT_SET_NO": 999,
    "REV_AT_EPOCH": 80937,
    "BSTAR": -0.0001339522,
    "MEAN_MOTION_DOT": -0.00000304,
    "MEAN_MOTION_DDOT": 0
   }
  },
  {
   "norad": 39260,
   "name": "FENGYUN 3C",
   "intl": "2013-052A",
   "group": "weather",
   "gcat": {
    "class": "C",
    "category": "MET",
    "owner": "NSMC",
    "state": "CN"
   },
   "omm": {
    "OBJECT_NAME": "FENGYUN 3C",
    "OBJECT_ID": "2013-052A",
    "EPOCH": "2026-06-30T23:11:43.565280",
    "MEAN_MOTION": 14.15758071,
    "ECCENTRICITY": 0.00144401,
    "INCLINATION": 98.4987,
    "RA_OF_ASC_NODE": 155.209,
    "ARG_OF_PERICENTER": 348.6625,
    "MEAN_ANOMALY": 11.4223,
    "EPHEMERIS_TYPE": 0,
    "CLASSIFICATION_TYPE": "U",
    "NORAD_CAT_ID": 39260,
    "ELEMENT_SET_NO": 999,
    "REV_AT_EPOCH": 66051,
    "BSTAR": 0.000062394884,
    "MEAN_MOTION_DOT": 8.1e-7,
    "MEAN_MOTION_DDOT": 0
   }
  }
 ]
}
